LEMUR-2-ARIANNA         
1 62699U 25009CU  26087.80608686  .00009372  00000+0  73418-3 0  9999
2 62699  97.6943 169.9352 0004595 113.0607 247.1102 15.01210253 65499
LEMUR-2-ALISIA          
1 62706U 25009DB  26087.86628398  .00009601  00000+0  74671-3 0  9993
2 62706  97.6964 170.6652 0006114 120.0559 240.1272 15.01469655 88102
LEMUR-2-ROUNDTRIPPER    
1 62711U 25009DG  26087.74468125  .00010618  00000+0  80460-3 0  9999
2 62711  97.7273 170.6266 0005803  73.7312 286.4551 15.02436505 65543
LEMUR-2-MYNAMEISJEFF    
1 62712U 25009DH  26087.87634634  .00010648  00000+0  80663-3 0  9992
2 62712  97.7314 171.0911 0005149  97.8055 262.3754 15.02451380 65564
LEMUR-2-LEIA-PHILIP     
1 63246U 25052AN  26087.66819832  .00005947  00000+0  52324-3 0  9994
2 63246  97.6936 340.9527 0005023 120.5638 239.6080 14.96874815 56628
LEMUR-2-LIA-MARTIN      
1 63248U 25052AQ  26087.68744995  .00005743  00000+0  50348-3 0  9993
2 63248  97.6982 341.3536 0004345  93.4554 266.7164 14.97028607 56633
LEMUR-2-DELOITTE-1      
1 63259U 25052BB  26087.65673338  .00005687  00000+0  49936-3 0  9992
2 63259  97.7019 341.6412 0002776  60.0868 300.0629 14.96977014 56640
LEMUR-2-EMERSONROSE     
1 63261U 25052BD  26087.64450418  .00005570  00000+0  47111-3 0  9990
2 63261  97.6984 342.0238 0001380  52.2902 307.8445 14.98444368 56673
LEMUR-2-MARACHE-FRAN    
1 63262U 25052BE  26087.66607183  .00007392  00000+0  61168-3 0  9998
2 63262  97.7012 342.2608 0001746  20.9061 339.2233 14.99183441 56693
LEMUR-2-THEFALCONER     
1 63264U 25052BG  26087.67186484  .00005249  00000+0  46417-3 0  9996
2 63264  97.6962 341.3625 0000420 317.5516  42.5673 14.96736300 56647
LEMUR-2-UNTITLED-SC     
1 63351U 25061A   26087.87577066  .00005287  00000+0  30307-3 0  9998
2 63351  97.5574  63.8896 0018946 176.6233 183.5129 15.12868499 55443
LEMUR-2-ESPERANZA       
1 63352U 25061B   26087.85762929  .00004804  00000+0  27519-3 0  9996
2 63352  97.5584  63.9470 0018568 175.7533 184.3859 15.12946829 55440
LEMUR-2-KREMPEL-BRO2    
1 63353U 25061C   26087.84120005  .00004564  00000+0  25844-3 0  9991
2 63353  97.5630  64.3619 0019722 168.7821 191.3854 15.13371255 55458
LEMUR-2-THERMORAPTOR    
1 63354U 25061D   26087.89318575  .00005352  00000+0  30187-3 0  9990
2 63354  97.5635  64.4746 0019482 167.6661 192.5051 15.13434714 55462
LEMUR-2-NEUROSPICY      
1 63355U 25061E   26087.87086999  .00005458  00000+0  30710-3 0  9990
2 63355  97.5564  64.1413 0017206 170.7874 189.3676 15.13550142 55466
LEMUR-2-TILLINFINITY    
1 63356U 25061F   26087.40848077  .00005256  00000+0  29099-3 0  9997
2 63356  97.5548  63.9168 0018728 161.1913 199.0014 15.14123826 55416
