[{"OBJECT_NAME":"LEMUR-2-ARIANNA","OBJECT_ID":"2025-009CU","EPOCH":"2026-03-28T19:20:45.904704","MEAN_MOTION":15.01210253,"ECCENTRICITY":0.0004595,"INCLINATION":97.6943,"RA_OF_ASC_NODE":169.9352,"ARG_OF_PERICENTER":113.0607,"MEAN_ANOMALY":247.1102,"EPHEMERIS_TYPE":0,"CLASSIFICATION_TYPE":"U","NORAD_CAT_ID":62699,"ELEMENT_SET_NO":999,"REV_AT_EPOCH":6549,"BSTAR":0.00073418,"MEAN_MOTION_DOT":9.372e-5,"MEAN_MOTION_DDOT":0},{"OBJECT_NAME":"LEMUR-2-ALISIA","OBJECT_ID":"2025-009DB","EPOCH":"2026-03-28T20:47:26.935872","MEAN_MOTION":15.01469655,"ECCENTRICITY":0.0006114,"INCLINATION":97.6964,"RA_OF_ASC_NODE":170.6652,"ARG_OF_PERICENTER":120.0559,"MEAN_ANOMALY":240.1272,"EPHEMERIS_TYPE":0,"CLASSIFICATION_TYPE":"U","NORAD_CAT_ID":62706,"ELEMENT_SET_NO":999,"REV_AT_EPOCH":8810,"BSTAR":0.00074671,"MEAN_MOTION_DOT":9.601e-5,"MEAN_MOTION_DDOT":0},{"OBJECT_NAME":"LEMUR-2-ROUNDTRIPPER","OBJECT_ID":"2025-009DG","EPOCH":"2026-03-28T17:52:20.460000","MEAN_MOTION":15.02436505,"ECCENTRICITY":0.0005803,"INCLINATION":97.7273,"RA_OF_ASC_NODE":170.6266,"ARG_OF_PERICENTER":73.7312,"MEAN_ANOMALY":286.4551,"EPHEMERIS_TYPE":0,"CLASSIFICATION_TYPE":"U","NORAD_CAT_ID":62711,"ELEMENT_SET_NO":999,"REV_AT_EPOCH":6554,"BSTAR":0.0008046,"MEAN_MOTION_DOT":0.00010618,"MEAN_MOTION_DDOT":0},{"OBJECT_NAME":"LEMUR-2-MYNAMEISJEFF","OBJECT_ID":"2025-009DH","EPOCH":"2026-03-28T21:01:56.323776","MEAN_MOTION":15.0245138,"ECCENTRICITY":0.0005149,"INCLINATION":97.7314,"RA_OF_ASC_NODE":171.0911,"ARG_OF_PERICENTER":97.8055,"MEAN_ANOMALY":262.3754,"EPHEMERIS_TYPE":0,"CLASSIFICATION_TYPE":"U","NORAD_CAT_ID":62712,"ELEMENT_SET_NO":999,"REV_AT_EPOCH":6556,"BSTAR":0.00080663,"MEAN_MOTION_DOT":0.00010648,"MEAN_MOTION_DDOT":0},{"OBJECT_NAME":"LEMUR-2-LEIA-PHILIP","OBJECT_ID":"2025-052AN","EPOCH":"2026-03-28T16:02:12.334848","MEAN_MOTION":14.96874815,"ECCENTRICITY":0.0005023,"INCLINATION":97.6936,"RA_OF_ASC_NODE":340.9527,"ARG_OF_PERICENTER":120.5638,"MEAN_ANOMALY":239.608,"EPHEMERIS_TYPE":0,"CLASSIFICATION_TYPE":"U","NORAD_CAT_ID":63246,"ELEMENT_SET_NO":999,"REV_AT_EPOCH":5662,"BSTAR":0.00052324,"MEAN_MOTION_DOT":5.947e-5,"MEAN_MOTION_DDOT":0},{"OBJECT_NAME":"LEMUR-2-LIA-MARTIN","OBJECT_ID":"2025-052AQ","EPOCH":"2026-03-28T16:29:55.675680","MEAN_MOTION":14.97028607,"ECCENTRICITY":0.0004345,"INCLINATION":97.6982,"RA_OF_ASC_NODE":341.3536,"ARG_OF_PERICENTER":93.4554,"MEAN_ANOMALY":266.7164,"EPHEMERIS_TYPE":0,"CLASSIFICATION_TYPE":"U","NORAD_CAT_ID":63248,"ELEMENT_SET_NO":999,"REV_AT_EPOCH":5663,"BSTAR":0.00050348,"MEAN_MOTION_DOT":5.743e-5,"MEAN_MOTION_DDOT":0},{"OBJECT_NAME":"LEMUR-2-DELOITTE-1","OBJECT_ID":"2025-052BB","EPOCH":"2026-03-28T15:45:41.764032","MEAN_MOTION":14.96977014,"ECCENTRICITY":0.0002776,"INCLINATION":97.7019,"RA_OF_ASC_NODE":341.6412,"ARG_OF_PERICENTER":60.0868,"MEAN_ANOMALY":300.0629,"EPHEMERIS_TYPE":0,"CLASSIFICATION_TYPE":"U","NORAD_CAT_ID":63259,"ELEMENT_SET_NO":999,"REV_AT_EPOCH":5664,"BSTAR":0.00049936,"MEAN_MOTION_DOT":5.687e-5,"MEAN_MOTION_DDOT":0},{"OBJECT_NAME":"LEMUR-2-EMERSONROSE","OBJECT_ID":"2025-052BD","EPOCH":"2026-03-28T15:28:05.161152","MEAN_MOTION":14.98444368,"ECCENTRICITY":0.000138,"INCLINATION":97.6984,"RA_OF_ASC_NODE":342.0238,"ARG_OF_PERICENTER":52.2902,"MEAN_ANOMALY":307.8445,"EPHEMERIS_TYPE":0,"CLASSIFICATION_TYPE":"U","NORAD_CAT_ID":63261,"ELEMENT_SET_NO":999,"REV_AT_EPOCH":5667,"BSTAR":0.00047111,"MEAN_MOTION_DOT":5.57e-5,"MEAN_MOTION_DDOT":0},{"OBJECT_NAME":"LEMUR-2-MARACHE-FRAN","OBJECT_ID":"2025-052BE","EPOCH":"2026-03-28T15:59:08.606112","MEAN_MOTION":14.99183441,"ECCENTRICITY":0.0001746,"INCLINATION":97.7012,"RA_OF_ASC_NODE":342.2608,"ARG_OF_PERICENTER":20.9061,"MEAN_ANOMALY":339.2233,"EPHEMERIS_TYPE":0,"CLASSIFICATION_TYPE":"U","NORAD_CAT_ID":63262,"ELEMENT_SET_NO":999,"REV_AT_EPOCH":5669,"BSTAR":0.00061168,"MEAN_MOTION_DOT":7.392e-5,"MEAN_MOTION_DDOT":0},{"OBJECT_NAME":"LEMUR-2-THEFALCONER","OBJECT_ID":"2025-052BG","EPOCH":"2026-03-28T16:07:29.122176","MEAN_MOTION":14.967363,"ECCENTRICITY":4.2e-5,"INCLINATION":97.6962,"RA_OF_ASC_NODE":341.3625,"ARG_OF_PERICENTER":317.5516,"MEAN_ANOMALY":42.5673,"EPHEMERIS_TYPE":0,"CLASSIFICATION_TYPE":"U","NORAD_CAT_ID":63264,"ELEMENT_SET_NO":999,"REV_AT_EPOCH":5664,"BSTAR":0.00046417,"MEAN_MOTION_DOT":5.249e-5,"MEAN_MOTION_DDOT":0},{"OBJECT_NAME":"LEMUR-2-UNTITLED-SC","OBJECT_ID":"2025-061A","EPOCH":"2026-03-28T21:01:06.585024","MEAN_MOTION":15.12868499,"ECCENTRICITY":0.0018946,"INCLINATION":97.5574,"RA_OF_ASC_NODE":63.8896,"ARG_OF_PERICENTER":176.6233,"MEAN_ANOMALY":183.5129,"EPHEMERIS_TYPE":0,"CLASSIFICATION_TYPE":"U","NORAD_CAT_ID":63351,"ELEMENT_SET_NO":999,"REV_AT_EPOCH":5544,"BSTAR":0.00030307,"MEAN_MOTION_DOT":5.287e-5,"MEAN_MOTION_DDOT":0},{"OBJECT_NAME":"LEMUR-2-ESPERANZA","OBJECT_ID":"2025-061B","EPOCH":"2026-03-28T20:34:59.170656","MEAN_MOTION":15.12946829,"ECCENTRICITY":0.0018568,"INCLINATION":97.5584,"RA_OF_ASC_NODE":63.947,"ARG_OF_PERICENTER":175.7533,"MEAN_ANOMALY":184.3859,"EPHEMERIS_TYPE":0,"CLASSIFICATION_TYPE":"U","NORAD_CAT_ID":63352,"ELEMENT_SET_NO":999,"REV_AT_EPOCH":5544,"BSTAR":0.00027519,"MEAN_MOTION_DOT":4.804e-5,"MEAN_MOTION_DDOT":0},{"OBJECT_NAME":"LEMUR-2-KREMPEL-BRO2","OBJECT_ID":"2025-061C","EPOCH":"2026-03-28T20:11:19.684320","MEAN_MOTION":15.13371255,"ECCENTRICITY":0.0019722,"INCLINATION":97.563,"RA_OF_ASC_NODE":64.3619,"ARG_OF_PERICENTER":168.7821,"MEAN_ANOMALY":191.3854,"EPHEMERIS_TYPE":0,"CLASSIFICATION_TYPE":"U","NORAD_CAT_ID":63353,"ELEMENT_SET_NO":999,"REV_AT_EPOCH":5545,"BSTAR":0.00025844,"MEAN_MOTION_DOT":4.564e-5,"MEAN_MOTION_DDOT":0},{"OBJECT_NAME":"LEMUR-2-THERMORAPTOR","OBJECT_ID":"2025-061D","EPOCH":"2026-03-28T21:26:11.248800","MEAN_MOTION":15.13434714,"ECCENTRICITY":0.0019482,"INCLINATION":97.5635,"RA_OF_ASC_NODE":64.4746,"ARG_OF_PERICENTER":167.6661,"MEAN_ANOMALY":192.5051,"EPHEMERIS_TYPE":0,"CLASSIFICATION_TYPE":"U","NORAD_CAT_ID":63354,"ELEMENT_SET_NO":999,"REV_AT_EPOCH":5546,"BSTAR":0.00030187,"MEAN_MOTION_DOT":5.352e-5,"MEAN_MOTION_DDOT":0},{"OBJECT_NAME":"LEMUR-2-NEUROSPICY","OBJECT_ID":"2025-061E","EPOCH":"2026-03-28T20:54:03.167136","MEAN_MOTION":15.13550142,"ECCENTRICITY":0.0017206,"INCLINATION":97.5564,"RA_OF_ASC_NODE":64.1413,"ARG_OF_PERICENTER":170.7874,"MEAN_ANOMALY":189.3676,"EPHEMERIS_TYPE":0,"CLASSIFICATION_TYPE":"U","NORAD_CAT_ID":63355,"ELEMENT_SET_NO":999,"REV_AT_EPOCH":5546,"BSTAR":0.0003071,"MEAN_MOTION_DOT":5.458e-5,"MEAN_MOTION_DDOT":0},{"OBJECT_NAME":"LEMUR-2-TILLINFINITY","OBJECT_ID":"2025-061F","EPOCH":"2026-03-28T09:48:12.738528","MEAN_MOTION":15.14123826,"ECCENTRICITY":0.00187285,"INCLINATION":97.5548,"RA_OF_ASC_NODE":63.9168,"ARG_OF_PERICENTER":161.1913,"MEAN_ANOMALY":199.0014,"EPHEMERIS_TYPE":0,"CLASSIFICATION_TYPE":"U","NORAD_CAT_ID":63356,"ELEMENT_SET_NO":999,"REV_AT_EPOCH":5541,"BSTAR":0.00029098938,"MEAN_MOTION_DOT":5.256e-5,"MEAN_MOTION_DDOT":0}]
